TDRS 3                  
1 19548U 88091B   26200.25418818 -.00000307  00000+0  00000+0 0  9999
2 19548  12.5780 340.7897 0038055 355.1957   3.4957  1.00279809125705
FLTSATCOM 8 (USA 46)    
1 20253U 89077A   26200.78777917 -.00000374  00000+0  00000+0 0  9999
2 20253  12.4123 350.9621 0002353  99.1393 256.6504  1.00281148260887
SKYNET 4C               
1 20776U 90079A   26198.16074994 -.00000215  00000+0  00000+0 0  9990
2 20776  13.3285 349.6256 0002817 132.9126  49.3797  0.98579636   331
TDRS 5                  
1 21639U 91054B   26200.64370130  .00000075  00000+0  00000+0 0  9994
2 21639  14.0669 353.5374 0007275 257.1055 110.8562  1.00276005128044
TDRS 6                  
1 22314U 93003B   26200.82504600 -.00000304  00000+0  00000+0 0  9998
2 22314  14.1834 356.8114 0008666 185.6323   6.2709  1.00278055122734
UFO 2 (USA 95)          
1 22787U 93056A   26200.77886455  .00000116  00000+0  00000+0 0  9995
2 22787  11.9062   3.3690 0002124   3.8607 239.3290  1.00272624118878
UFO 4 (USA 108)         
1 23467U 95003A   26200.72571104 -.00000030  00000+0  00000+0 0  9998
2 23467   9.6796  12.9923 0002991  96.6394 261.4989  1.00269133115275
TDRS 7                  
1 23613U 95035B   26200.86655880 -.00000249  00000+0  00000+0 0  9997
2 23613  13.3636 347.9602 0011233  87.5557 263.3679  1.00272623113573
USA 115 (MILSTAR-1 2)   
1 23712U 95060A   26200.45988794 -.00000212  00000+0  00000+0 0  9993
2 23712  14.0843   3.5046 0006228 122.4341 246.8510  1.00272407 33218
INMARSAT 3-F1           
1 23839U 96020A   26200.62127948  .00000066  00000+0  00000+0 0  9991
2 23839  10.6662  46.3290 0004637  96.0398 249.2980  0.99981553110574
INMARSAT 3-F2           
1 24307U 96053A   26200.50103839 -.00000359  00000+0  00000+0 0  9994
2 24307   9.9272  53.6008 0006254  59.7947 121.6532  0.99989221109242
INMARSAT 3-F3           
1 24674U 96070A   26200.80114023 -.00000003  00000+0  00000+0 0  9996
2 24674  10.3863  49.3333 0003646  85.8894 100.1711  0.99996815108233
USA 134                 
1 25019U 97065A   26200.62537750 -.00000073  00000+0  00000+0 0  9998
2 25019  12.8222  21.4763 0002633 340.5674  48.1305  1.00275747 33282
INMARSAT 3-F5           
1 25153U 98006B   26200.46708132 -.00000300  00000+0  00000+0 0  9992
2 25153   9.7637  52.9339 0004505  65.2565 293.2557  1.00271954104214
ABS-6                   
1 25924U 99053A   26200.79436587 -.00000121  00000+0  00000+0 0  9990
2 25924   0.0805 263.2676 0003491 211.9619 267.3162  1.00279873 98163
UFO 10 (USA 146)        
1 25967U 99063A   26200.81225024 -.00000196  00000+0  00000+0 0  9995
2 25967   9.8492  27.0337 0001797 129.0770  50.9546  1.00271945 97672
ASIASTAR                
1 26107U 00016A   26200.56980779 -.00000342  00000+0  00000+0 0  9992
2 26107   9.2032  57.8041 0003966  70.8302 118.8408  1.00269607 96245
USA 149 (DSP 20)        
1 26356U 00024A   26200.65898420  .00000085  00000+0  00000+0 0  9991
2 26356  13.1949  11.6176 0000360 267.6238  90.6092  1.00261155 33234
TDRS 8                  
1 26388U 00034A   26200.64719036 -.00000205  00000+0  00000+0 0  9996
2 26388  12.7332  31.0403 0003677  40.3802 183.8466  1.00271509 95508
NSS-11                  
1 26554U 00059A   26200.79774588  .00000020  00000+0  00000+0 0  9991
2 26554   2.2090  81.0045 0003090  46.3398 273.4191  1.00272622 41611
USA 153                 
1 26575U 00065A   26200.65185078 -.00000334  00000+0  00000+0 0  9995
2 26575  11.6791  35.1457 0002131  58.2754 213.1618  1.00271980 33258
AMC-6                   
1 26580U 00067A   26200.73619778  .00000085  00000+0  00000+0 0  9993
2 26580   0.2334  83.8526 0004031  47.0887 296.5504  1.00271937 94216
USA 157 (MILSTAR-2 2)   
1 26715U 01009A   26200.63239203  .00000100  00000+0  00000+0 0  9998
2 26715  11.5781  19.5593 0040471 179.1503 176.3384  1.00276937 33261
INTELSAT 902 (IS-902)   
1 26900U 01039A   26200.46786132 -.00000291  00000+0  00000+0 0  9998
2 26900   6.1951  71.3845 0004160  46.7622 297.4397  1.00271071 91018
USA 164 (MILSTAR-2 3)   
1 27168U 02001A   26200.74628005  .00000088  00000+0  00000+0 0  9993
2 27168  11.2180  21.7052 0099217   9.1445 194.3091  1.00268746 33284
INTELSAT 904 (IS-904)   
1 27380U 02007A   26200.40023269 -.00000234  00000+0  00000+0 0  9993
2 27380   6.9984  68.7946 0005438  27.8388 313.1487  1.00270287 52083
DIRECTV 5 (TEMPO 1)     
1 27426U 02023A   26200.39280763 -.00000064  00000+0  00000+0 0  9995
2 27426   4.9582  74.9074 0003062  37.4573 216.1179  1.00271874 88443
INTELSAT 905 (IS-905)   
1 27438U 02027A   26200.73576443  .00000086  00000+0  00000+0 0  9996
2 27438   6.8332  69.4042 0003594  49.6380 306.1464  1.00273297 51689
GALAXY 3C (G-3C)        
1 27445U 02030A   26200.81542595 -.00000158  00000+0  00000+0 0  9999
2 27445   3.8167  77.5563 0001727  30.7244  28.0275  1.00271201 46827
INTELSAT 906 (IS-906)   
1 27513U 02041A   26200.78030611  .00000006  00000+0  00000+0 0  9995
2 27513   5.8822  72.5153 0003526  28.0552 182.0645  1.00270800 87353
NIMIQ 2                 
1 27632U 02062A   26200.61016971 -.00000078  00000+0  00000+0 0  9995
2 27632   9.5189  56.5524 0005437  57.0290 294.2582  1.00272099 44508
